{"fetched_at":"2026-07-09T08:01:31.432Z","source":"https://celestrak.org/NORAD/elements/gp.php?NAME=SPOT&FORMAT=JSON","constellation":"spot","records":[{"OBJECT_NAME":"SPOT 6","OBJECT_ID":"2012-047A","EPOCH":"2026-07-08T22:40:25.702752","CLASSIFICATION_TYPE":"U","MEAN_MOTION":14.58535941,"ECCENTRICITY":0.00011536,"INCLINATION":98.2107,"RA_OF_ASC_NODE":256.9982,"ARG_OF_PERICENTER":81.8254,"MEAN_ANOMALY":278.3076,"EPHEMERIS_TYPE":0,"NORAD_CAT_ID":38755,"ELEMENT_SET_NO":999,"REV_AT_EPOCH":73622,"BSTAR":-0.00000163519,"MEAN_MOTION_DOT":-5.3e-7,"MEAN_MOTION_DDOT":0},{"OBJECT_NAME":"SPOT 7","OBJECT_ID":"2014-034A","EPOCH":"2026-07-08T23:03:46.149984","CLASSIFICATION_TYPE":"U","MEAN_MOTION":14.60977394,"ECCENTRICITY":0.00015338,"INCLINATION":98.0615,"RA_OF_ASC_NODE":251.8908,"ARG_OF_PERICENTER":97.4143,"MEAN_ANOMALY":262.7233,"EPHEMERIS_TYPE":0,"NORAD_CAT_ID":40053,"ELEMENT_SET_NO":999,"REV_AT_EPOCH":64031,"BSTAR":0.000043238925,"MEAN_MOTION_DOT":0.00000167,"MEAN_MOTION_DDOT":0}]}
